2025-155V               
1 64895U 25155V   26068.85787115  .00013705  00000+0  51002-3 0  9990
2 64895  97.4485  37.2490 0008035 152.8264 207.3397 15.27583301 65579
STARLINK-35608          
1 66508U 25263Z   26068.13895040  .00034248  00000+0  12487-2 0  9999
2 66508  43.0000 353.8938 0001155 287.9889  72.0837 15.27569338 18810
